OBJECT_NAME,OBJECT_ID,EPOCH,MEAN_MOTION,ECCENTRICITY,INCLINATION,RA_OF_ASC_NODE,ARG_OF_PERICENTER,MEAN_ANOMALY,EPHEMERIS_TYPE,CLASSIFICATION_TYPE,NORAD_CAT_ID,ELEMENT_SET_NO,REV_AT_EPOCH,BSTAR,MEAN_MOTION_DOT,MEAN_MOTION_DDOT
ONEWEB-0238,2021-045T,2026-07-09T03:24:52.063200,13.15548291,.00024508,87.9004,254.8017,93.7309,266.4101,0,U,48784,999,24726,-.12730285E-3,-.35E-6,0
ONEWEB-0240,2021-045U,2026-07-09T03:55:29.406720,13.15548670,.00022822,87.9000,254.8076,106.2364,253.9017,0,U,48785,999,24729,.35592388E-3,.147E-5,0
ONEWEB-0246,2021-045V,2026-07-09T03:47:30.228000,13.15547594,.00019538,87.8997,254.8120,100.1645,259.9706,0,U,48786,999,24716,.18524842E-3,.83E-6,0
ONEWEB-0210,2021-045W,2026-07-09T03:10:59.711520,13.15547827,.00015884,87.9003,254.8143,121.5312,238.5974,0,U,48787,999,24720,-.26962171E-3,-.89E-6,0
ONEWEB-0214,2021-045X,2026-07-09T03:23:31.240320,13.15546833,.00017299,87.8999,254.8099,99.1257,261.0069,0,U,48788,999,24717,-.14733681E-3,-.43E-6,0
ONEWEB-0221,2021-045Y,2026-07-09T03:33:49.265568,13.15547702,.00020938,87.8995,254.8173,105.0832,255.0531,0,U,48789,999,24726,.5542233E-5,.15E-6,0
ONEWEB-0213,2021-045Z,2026-07-08T16:20:42.668160,13.15548029,.00020043,87.8992,254.9138,107.7843,252.3506,0,U,48790,999,24726,-.10006085E-3,-.25E-6,0
ONEWEB-0212,2021-045AA,2026-07-09T02:44:44.203200,13.15546947,.00020889,87.8999,254.8209,98.6378,261.4989,0,U,48791,999,24731,-.2854883E-5,.12E-6,0
ONEWEB-0227,2021-045AB,2026-07-08T17:36:00.179424,13.15547538,.00021044,87.8998,254.8970,102.2333,257.9033,0,U,48792,999,24721,-.12452153E-3,-.34E-6,0
ONEWEB-0226,2021-045AC,2026-07-09T02:34:29.165664,13.15547566,.00019385,87.8997,254.8271,106.4852,253.6492,0,U,48793,999,24723,.17377721E-3,.78E-6,0
ONEWEB-0224,2021-045AD,2026-07-09T03:31:32.453760,13.15548547,.0002937,87.8987,254.8527,104.1681,255.9776,0,U,48794,999,24716,-.14852744E-3,-.43E-6,0
ONEWEB-0233,2021-045AE,2026-07-09T03:38:11.356512,13.15550121,.00021756,87.8987,254.8586,106.2000,253.9370,0,U,48795,999,24718,.18787934E-4,.2E-6,0
ONEWEB-0190,2021-045AF,2026-07-09T03:20:07.568736,13.15548449,.00020742,87.8994,254.8243,118.4527,241.6813,0,U,48796,999,24725,-.22599379E-3,-.72E-6,0
ONEWEB-0236,2021-045AG,2026-07-09T03:45:13.900032,13.15548050,.00021531,87.8987,254.8290,96.0732,264.0643,0,U,48797,999,24714,.16564417E-3,.75E-6,0
ONEWEB-0248,2021-045AH,2026-07-08T17:06:20.641824,13.15548631,.00023066,87.9000,254.9035,110.5693,249.5685,0,U,48798,999,24724,.51649143E-3,.207E-5,0
ONEWEB-0225,2021-045AJ,2026-07-08T17:38:17.431008,13.15547705,.00020671,87.8995,254.9061,115.1604,244.9741,0,U,48799,999,24725,-.19528149E-3,-.61E-6,0
ONEWEB-0215,2021-045AK,2026-07-09T03:52:04.147104,13.15548399,.00022018,87.9003,254.8049,116.0292,244.1065,0,U,48800,999,24718,.24296909E-3,.104E-5,0
ONEWEB-0216,2021-045AL,2026-07-09T04:05:45.858624,13.15547614,.00019346,87.9008,254.8156,97.6648,262.4702,0,U,48801,999,24719,.32664273E-3,.136E-5,0
ONEWEB-0239,2021-045AM,2026-07-08T17:15:28.429056,13.15547760,.000252,87.8984,254.9117,116.3191,243.8199,0,U,48802,999,24717,.22617827E-3,.98E-6,0
ONEWEB-0249,2021-060A,2026-07-09T02:12:27.598176,13.16596275,.00020029,87.9106,224.4281,96.9921,263.1438,0,U,48967,999,24249,.35791803E-3,.15E-5,0
ONEWEB-0250,2021-060B,2026-07-09T01:00:49.663872,13.25834029,.00030838,87.9076,222.1217,92.0622,268.0867,0,U,48968,999,24311,.14048859E-3,.75E-6,0
ONEWEB-0252,2021-060D,2026-07-09T01:07:31.253664,13.16594858,.00018328,87.9085,224.4286,95.4225,264.7115,0,U,48970,999,24253,-.6754292E-5,.1E-6,0
ONEWEB-0253,2021-060E,2026-07-09T08:09:18.379584,13.16595070,.00021587,87.9077,224.3761,94.5092,265.6286,0,U,48971,999,24250,-.13302583E-4,.8E-7,0
ONEWEB-0254,2021-060F,2026-07-09T01:05:14.771040,13.16589456,.00024047,87.9093,224.4324,105.6426,254.4970,0,U,48972,999,24246,.238905E-2,.926E-5,0
ONEWEB-0255,2021-060G,2026-07-08T15:03:20.886048,13.16593233,.00021037,87.9081,224.5216,99.3898,260.7470,0,U,48973,999,24248,-.50319093E-4,-.6E-7,0
ONEWEB-0256,2021-060H,2026-07-09T00:48:07.100064,13.16604764,.00019806,87.9079,224.4447,91.9923,268.1435,0,U,48974,999,24250,.21086366E-2,.819E-5,0
ONEWEB-0257,2021-060J,2026-07-09T12:31:29.671680,13.16593118,.0002046,87.9068,224.3348,98.5684,261.5678,0,U,48975,999,24252,-.29961E-3,-.102E-5,0
ONEWEB-0258,2021-060K,2026-07-09T12:33:46.531008,13.16593902,.000211,87.9082,224.3471,95.7128,264.4243,0,U,48976,999,24253,.60686E-4,.36E-6,0
ONEWEB-0259,2021-060L,2026-07-09T01:28:02.479584,13.16593382,.00022312,87.9080,224.4372,97.2566,262.8819,0,U,48977,999,24250,-.1194881E-3,-.33E-6,0
ONEWEB-0260,2021-060M,2026-07-09T01:15:29.071584,13.16595194,.00016809,87.9074,224.4401,90.7284,269.4039,0,U,48978,999,24248,-.29935828E-4,.1E-7,0
ONEWEB-0261,2021-060N,2026-07-09T00:32:11.348448,13.16593484,.00019306,87.9076,224.4470,102.2459,257.8889,0,U,48979,999,24253,.79672922E-4,.43E-6,0
ONEWEB-0262,2021-060P,2026-07-08T14:56:30.295968,13.16593731,.00023113,87.9074,224.5132,102.2553,257.8837,0,U,48980,999,24244,.29666081E-3,.126E-5,0
ONEWEB-0263,2021-060Q,2026-07-09T00:49:16.722912,13.16593469,.00021021,87.9093,224.4412,107.0780,253.0582,0,U,48981,999,24246,.2857576E-5,.14E-6,0
ONEWEB-0264,2021-060R,2026-07-09T12:39:26.741376,13.16593619,.0001915,87.9073,224.3467,97.6799,262.4549,0,U,48982,999,24253,-.75417E-3,-.275E-5,0
ONEWEB-0266,2021-060T,2026-07-09T02:13:37.946784,13.16595736,.00021441,87.9091,224.4225,92.8061,267.3316,0,U,48984,999,24246,.33693518E-3,.142E-5,0
ONEWEB-0267,2021-060U,2026-07-09T00:40:09.795360,13.16593930,.00020623,87.9091,224.4321,106.0313,254.1046,0,U,48985,999,24246,-.10119894E-3,-.26E-6,0
ONEWEB-0268,2021-060V,2026-07-09T12:40:36.671808,13.16593716,.0001909,87.9085,224.3443,92.8679,267.2671,0,U,48986,999,24279,.28467E-3,.122E-5,0
ONEWEB-0269,2021-060W,2026-07-09T01:16:38.370432,13.16593443,.00019756,87.9073,224.4393,89.0187,271.1170,0,U,48987,999,24250,-.27934344E-4,.2E-7,0
ONEWEB-0270,2021-060X,2026-07-09T12:38:20.205600,13.16593496,.0002259,87.9081,224.3465,103.7810,256.3572,0,U,48988,999,24260,.17421E-4,.2E-6,0
ONEWEB-0271,2021-060Y,2026-07-09T01:23:29.016672,13.16593400,.00020407,87.9079,224.4292,102.3353,257.8006,0,U,48989,999,24254,-.87414662E-4,-.21E-6,0
ONEWEB-0272,2021-060Z,2026-07-08T14:58:47.347968,13.16595805,.00017683,87.9062,224.5272,103.5344,256.5984,0,U,48990,999,24243,.44741592E-3,.184E-5,0
ONEWEB-0273,2021-060AA,2026-07-09T02:27:18.854784,13.16594051,.00019111,87.9097,224.4326,96.6802,263.4546,0,U,48991,999,24247,.16979508E-3,.78E-6,0
ONEWEB-0274,2021-060AB,2026-07-09T01:14:20.997024,13.16594931,.00017261,87.9075,224.4421,93.3174,266.8155,0,U,48992,999,24250,-.39637426E-4,-.2E-7,0
ONEWEB-0275,2021-060AC,2026-07-09T00:58:23.636640,13.16595897,.00020027,87.9086,224.4350,96.6331,263.5028,0,U,48993,999,24243,-.14727802E-4,.7E-7,0
ONEWEB-0276,2021-060AD,2026-07-09T12:42:53.792928,13.16593176,.0001931,87.9080,224.3372,93.5834,266.5518,0,U,48994,999,24251,.95031E-4,.49E-6,0
ONEWEB-0277,2021-060AE,2026-07-08T15:07:55.200864,13.16594620,.00020606,87.9079,224.5235,101.1837,258.9526,0,U,48995,999,24238,.36840223E-3,.154E-5,0
ONEWEB-0278,2021-060AF,2026-07-08T14:54:13.788288,13.16593571,.00022915,87.9078,224.5171,91.3531,268.7862,0,U,48996,999,24251,.44664922E-4,.3E-6,0
ONEWEB-0279,2021-060AG,2026-07-08T15:05:37.685760,13.16594215,.00019614,87.9073,224.5144,97.6371,262.4983,0,U,48997,999,24244,.38679097E-4,.28E-6,0
ONEWEB-0280,2021-060AH,2026-07-09T00:34:27.737760,13.16594793,.00024098,87.9083,224.4387,99.7813,260.3590,0,U,48998,999,24243,.21712848E-4,.21E-6,0
ONEWEB-0281,2021-060AJ,2026-07-09T08:00:11.005344,13.16593667,.00019001,87.9093,224.3750,87.8134,272.3214,0,U,48999,999,24254,-.27957821E-3,-.94E-6,0
ONEWEB-0282,2021-060AK,2026-07-09T01:25:45.727392,13.16594232,.00021539,87.9078,224.4355,97.8622,262.2754,0,U,49000,999,24248,-.14343652E-3,-.42E-6,0
ONEWEB-0283,2021-060AL,2026-07-09T01:09:47.357856,13.16593928,.00020174,87.9077,224.4372,98.9488,261.1872,0,U,49001,999,24249,-.1433358E-3,-.42E-6,0
ONEWEB-0284,2021-060AM,2026-07-08T14:04:04.422720,13.16593687,.00024555,87.9092,224.5223,95.2061,264.9351,0,U,49002,999,24241,-.28530906E-3,-.96E-6,0
ONEWEB-0285,2021-075A,2026-07-09T16:51:54.359136,13.12444920,.0001779,87.8963,346.1854,88.6705,271.4627,0,U,49075,999,23816,-.6334E-3,-.215E-5,0
ONEWEB-0286,2021-075B,2026-07-09T16:26:04.943616,13.12441952,.0001775,87.8947,346.2037,87.3621,272.7710,0,U,49076,999,23751,-.96284E-3,-.334E-5,0
ONEWEB-0287,2021-075C,2026-07-09T17:16:21.057024,13.17647814,.0002003,87.9136,1.3828,79.5145,280.6212,0,U,49077,999,23659,.16182E-3,.76E-6,0
ONEWEB-0288,2021-075D,2026-07-09T15:52:07.777632,13.12441173,.000198,87.8959,346.1865,90.4444,269.6912,0,U,49078,999,23813,.94517E-3,.353E-5,0
ONEWEB-0289,2021-075E,2026-07-08T22:09:21.051648,13.17609934,.00020195,87.9142,1.5592,98.5264,261.6097,0,U,49079,999,23706,-.9263199E-5,.9E-7,0
ONEWEB-0290,2021-075F,2026-07-08T17:51:50.986368,13.17650538,.00022966,87.9146,1.5671,99.6565,260.4826,0,U,49080,999,23645,-.20340204E-4,.5E-7,0
ONEWEB-0291,2021-075G,2026-07-09T17:11:30.500736,13.17646901,.0002169,87.9139,1.3801,86.0825,274.0554,0,U,49081,999,23657,.93302E-4,.49E-6,0
ONEWEB-0293,2021-075H,2026-07-09T17:47:56.806080,13.17649513,.0001982,87.9131,1.3777,92.9407,267.1951,0,U,49082,999,23660,-.7604E-4,-.17E-6,0
ONEWEB-0294,2021-075J,2026-07-09T16:01:53.516064,13.12442268,.000215,87.8963,346.1890,99.4647,260.6725,0,U,49083,999,23752,.64953E-3,.246E-5,0
ONEWEB-0295,2021-075K,2026-07-09T17:46:44.414976,13.17649571,.0002069,87.9137,1.3818,84.5418,275.5950,0,U,49084,999,23656,.46691E-5,.15E-6,0
ONEWEB-0296,2021-075L,2026-07-09T17:22:24.234240,13.12443740,.0002111,87.8967,346.1863,88.0069,272.1302,0,U,49085,999,23753,.12781E-2,.473E-5,0
ONEWEB-0297,2021-075M,2026-07-09T16:16:31.209600,13.12442056,.0001869,87.8952,346.2031,91.6028,268.5315,0,U,49086,999,23813,-.38866E-3,-.127E-5,0
